start=new Date('2021-11-27T00:00:00.000Z').valueOf();
sats=[{"SEMIMAJOR_AXIS":"6925.376","EPHEMERIS_TYPE":"0","ECCENTRICITY":"0.00017670","CENTER_NAME":"EARTH","MEAN_MOTION_DOT":"-0.00000193","OBJECT_TYPE":"PAYLOAD","REF_FRAME":"TEME","ARG_OF_PERICENTER":"64.0378","TIME_SYSTEM":"UTC","APOAPSIS":"548.464","ELEMENT_SET_NO":"999","PERIOD":"95.593","PERIAPSIS":"546.017","NORAD_CAT_ID":"46546","INCLINATION":"53.0559","OBJECT_NAME":"STARLINK-1697","TLE_LINE2":"2 46546  53.0559 357.2133 0001767  64.0378 296.0793 15.06391140 63787","MEAN_MOTION":"15.06391140","REV_AT_EPOCH":"6378","OBJECT_ID":"2020-070Q","DECAY_DATE":null,"SITE":"AFETR","TLE_LINE1":"1 46546U 20070Q   21330.79500837 -.00000193  00000-0  59682-5 0  9991","RCS_SIZE":"LARGE","MEAN_ELEMENT_THEORY":"SGP4","RA_OF_ASC_NODE":"357.2133","LAUNCH_DATE":"2020-10-06","FILE":"3224952","GP_ID":"190559307","MEAN_ANOMALY":"296.0793","BSTAR":"0.00000596820000","COUNTRY_CODE":"US","MEAN_MOTION_DDOT":"0.0000000000000","CLASSIFICATION_TYPE":"U","EPOCH":"2021-11-26T19:04:48.723168"},{"CLASSIFICATION_TYPE":"U","EPOCH":"2021-11-26T11:49:33.309696","MEAN_MOTION_DDOT":"0.0000000000000","BSTAR":"0.00004412800000","COUNTRY_CODE":"US","GP_ID":"190531242","MEAN_ANOMALY":"284.1445","RA_OF_ASC_NODE":"358.5761","FILE":"3224704","LAUNCH_DATE":"2020-10-06","RCS_SIZE":"LARGE","MEAN_ELEMENT_THEORY":"SGP4","SITE":"AFETR","TLE_LINE1":"1 46547U 20070R   21330.49274664  .00000376  00000-0  44128-4 0  9995","REV_AT_EPOCH":"6374","OBJECT_ID":"2020-070R","DECAY_DATE":null,"MEAN_MOTION":"15.06399030","OBJECT_NAME":"STARLINK-1698","TLE_LINE2":"2 46547  53.0561 358.5761 0001530  75.9714 284.1445 15.06399030 63749","NORAD_CAT_ID":"46547","INCLINATION":"53.0561","PERIAPSIS":"546.157","PERIOD":"95.592","TIME_SYSTEM":"UTC","APOAPSIS":"548.276","ELEMENT_SET_NO":"999","REF_FRAME":"TEME","ARG_OF_PERICENTER":"75.9714","MEAN_MOTION_DOT":"0.00000376","OBJECT_TYPE":"PAYLOAD","CENTER_NAME":"EARTH","EPHEMERIS_TYPE":"0","ECCENTRICITY":"0.00015300","SEMIMAJOR_AXIS":"6925.352"},{"CLASSIFICATION_TYPE":"U","EPOCH":"2021-11-26T21:38:43.283040","MEAN_MOTION_DDOT":"0.0000000000000","BSTAR":"0.00011099000000","COUNTRY_CODE":"US","MEAN_ANOMALY":"313.2120","GP_ID":"190559810","RA_OF_ASC_NODE":"356.7486","LAUNCH_DATE":"2020-10-06","FILE":"3224952","RCS_SIZE":"LARGE","MEAN_ELEMENT_THEORY":"SGP4","SITE":"AFETR","TLE_LINE1":"1 46548U 20070S   21330.90188985  .00001372  00000-0  11099-3 0  9999","OBJECT_ID":"2020-070S","REV_AT_EPOCH":"6380","DECAY_DATE":null,"MEAN_MOTION":"15.06402803","OBJECT_NAME":"STARLINK-1699","TLE_LINE2":"2 46548  53.0552 356.7486 0001785  46.9018 313.2120 15.06402803 63805","NORAD_CAT_ID":"46548","INCLINATION":"53.0552","PERIOD":"95.592","PERIAPSIS":"545.969","APOAPSIS":"548.441","TIME_SYSTEM":"UTC","ELEMENT_SET_NO":"999","REF_FRAME":"TEME","ARG_OF_PERICENTER":"46.9018","MEAN_MOTION_DOT":"0.00001372","OBJECT_TYPE":"PAYLOAD","CENTER_NAME":"EARTH","EPHEMERIS_TYPE":"0","ECCENTRICITY":"0.00017850","SEMIMAJOR_AXIS":"6925.340"},{"MEAN_MOTION":"15.06394158","OBJECT_ID":"2020-070T","REV_AT_EPOCH":"6378","DECAY_DATE":null,"OBJECT_NAME":"STARLINK-1700","TLE_LINE2":"2 46549  53.0541 357.2053 0001509  54.7496 305.3634 15.06394158 63783","RCS_SIZE":"LARGE","MEAN_ELEMENT_THEORY":"SGP4","RA_OF_ASC_NODE":"357.2053","FILE":"3224952","LAUNCH_DATE":"2020-10-06","TLE_LINE1":"1 46549U 20070T   21330.79868888  .00001726  00000-0  13475-3 0  9997","SITE":"AFETR","GP_ID":"190558558","MEAN_ANOMALY":"305.3634","EPOCH":"2021-11-26T19:10:06.719232","CLASSIFICATION_TYPE":"U","BSTAR":"0.00013475000000","COUNTRY_CODE":"US","MEAN_MOTION_DDOT":"0.0000000000000","EPHEMERIS_TYPE":"0","ECCENTRICITY":"0.00015090","SEMIMAJOR_AXIS":"6925.366","MEAN_MOTION_DOT":"0.00001726","OBJECT_TYPE":"PAYLOAD","CENTER_NAME":"EARTH","REF_FRAME":"TEME","ARG_OF_PERICENTER":"54.7496","TIME_SYSTEM":"UTC","APOAPSIS":"548.277","ELEMENT_SET_NO":"999","NORAD_CAT_ID":"46549","INCLINATION":"53.0541","PERIOD":"95.593","PERIAPSIS":"546.186"},{"APOAPSIS":"548.239","TIME_SYSTEM":"UTC","ELEMENT_SET_NO":"999","REF_FRAME":"TEME","ARG_OF_PERICENTER":"68.9237","PERIAPSIS":"546.183","PERIOD":"95.592","NORAD_CAT_ID":"46550","INCLINATION":"53.0560","SEMIMAJOR_AXIS":"6925.346","EPHEMERIS_TYPE":"0","ECCENTRICITY":"0.00014840","CENTER_NAME":"EARTH","MEAN_MOTION_DOT":"0.00001539","OBJECT_TYPE":"PAYLOAD","MEAN_ANOMALY":"291.1910","GP_ID":"190558808","MEAN_MOTION_DDOT":"0.0000000000000","BSTAR":"0.00012222000000","COUNTRY_CODE":"US","CLASSIFICATION_TYPE":"U","EPOCH":"2021-11-26T18:48:52.327008","OBJECT_NAME":"STARLINK-1701","TLE_LINE2":"2 46550  53.0560 357.2669 0001484  68.9237 291.1910 15.06400826 63780","OBJECT_ID":"2020-070U","REV_AT_EPOCH":"6378","DECAY_DATE":null,"MEAN_MOTION":"15.06400826","SITE":"AFETR","TLE_LINE1":"1 46550U 20070U   21330.78393897  .00001539  00000-0  12222-3 0  9992","RA_OF_ASC_NODE":"357.2669","FILE":"3224952","LAUNCH_DATE":"2020-10-06","RCS_SIZE":"LARGE","MEAN_ELEMENT_THEORY":"SGP4"},{"CENTER_NAME":"EARTH","OBJECT_TYPE":"PAYLOAD","MEAN_MOTION_DOT":"0.00000055","SEMIMAJOR_AXIS":"6925.348","ECCENTRICITY":"0.00014570","EPHEMERIS_TYPE":"0","PERIOD":"95.592","PERIAPSIS":"546.204","INCLINATION":"53.0546","NORAD_CAT_ID":"46552","ARG_OF_PERICENTER":"60.3382","REF_FRAME":"TEME","ELEMENT_SET_NO":"999","TIME_SYSTEM":"UTC","APOAPSIS":"548.222","SITE":"AFETR","TLE_LINE1":"1 46552U 20070W   21330.74293369  .00000055  00000-0  22558-4 0  9999","MEAN_ELEMENT_THEORY":"SGP4","RCS_SIZE":"LARGE","FILE":"3224952","LAUNCH_DATE":"2020-10-06","RA_OF_ASC_NODE":"342.4499","TLE_LINE2":"2 46552  53.0546 342.4499 0001457  60.3382 299.7751 15.06400147 63996","OBJECT_NAME":"STARLINK-1649","MEAN_MOTION":"15.06400147","DECAY_DATE":null,"OBJECT_ID":"2020-070W","REV_AT_EPOCH":"6399","COUNTRY_CODE":"US","BSTAR":"0.00002255800000","MEAN_MOTION_DDOT":"0.0000000000000","EPOCH":"2021-11-26T17:49:49.470816","CLASSIFICATION_TYPE":"U","GP_ID":"190560054","MEAN_ANOMALY":"299.7751"},{"MEAN_MOTION_DOT":"0.00000423","OBJECT_TYPE":"PAYLOAD","CENTER_NAME":"EARTH","EPHEMERIS_TYPE":"0","ECCENTRICITY":"0.00017300","SEMIMAJOR_AXIS":"6925.355","NORAD_CAT_ID":"46553","INCLINATION":"53.0550","PERIOD":"95.592","PERIAPSIS":"546.022","APOAPSIS":"548.418","TIME_SYSTEM":"UTC","ELEMENT_SET_NO":"999","REF_FRAME":"TEME","ARG_OF_PERICENTER":"61.1221","RA_OF_ASC_NODE":"327.6262","LAUNCH_DATE":"2020-10-06","FILE":"3224952","RCS_SIZE":"LARGE","MEAN_ELEMENT_THEORY":"SGP4","TLE_LINE1":"1 46553U 20070X   21330.70467277  .00000423  00000-0  47270-4 0  9994","SITE":"AFETR","REV_AT_EPOCH":"6419","OBJECT_ID":"2020-070X","DECAY_DATE":null,"MEAN_MOTION":"15.06397940","OBJECT_NAME":"STARLINK-1664","TLE_LINE2":"2 46553  53.0550 327.6262 0001730  61.1221 298.9941 15.06397940 64191","CLASSIFICATION_TYPE":"U","EPOCH":"2021-11-26T16:54:43.727328","MEAN_MOTION_DDOT":"0.0000000000000","BSTAR":"0.00004727000000","COUNTRY_CODE":"US","MEAN_ANOMALY":"298.9941","GP_ID":"190560310"},{"MEAN_MOTION":"15.06389886","DECAY_DATE":null,"OBJECT_ID":"2020-070Y","REV_AT_EPOCH":"6399","TLE_LINE2":"2 46554  53.0545 342.3861 0001655  55.0544 305.0600 15.06389886 63990","OBJECT_NAME":"STARLINK-1671","MEAN_ELEMENT_THEORY":"SGP4","RCS_SIZE":"LARGE","FILE":"3224952","LAUNCH_DATE":"2020-10-06","RA_OF_ASC_NODE":"342.3861","TLE_LINE1":"1 46554U 20070Y   21330.75768135  .00001357  00000-0  10999-3 0  9991","SITE":"AFETR","GP_ID":"190559058","MEAN_ANOMALY":"305.0600","CLASSIFICATION_TYPE":"U","EPOCH":"2021-11-26T18:11:03.668640","COUNTRY_CODE":"US","BSTAR":"0.00010999000000","MEAN_MOTION_DDOT":"0.0000000000000","ECCENTRICITY":"0.00016550","EPHEMERIS_TYPE":"0","SEMIMAJOR_AXIS":"6925.380","OBJECT_TYPE":"PAYLOAD","MEAN_MOTION_DOT":"0.00001357","CENTER_NAME":"EARTH","ARG_OF_PERICENTER":"55.0544","REF_FRAME":"TEME","ELEMENT_SET_NO":"999","TIME_SYSTEM":"UTC","APOAPSIS":"548.391","INCLINATION":"53.0545","NORAD_CAT_ID":"46554","PERIAPSIS":"546.098","PERIOD":"95.593"},{"RA_OF_ASC_NODE":"281.3836","LAUNCH_DATE":"2020-10-06","FILE":"3224952","RCS_SIZE":"LARGE","MEAN_ELEMENT_THEORY":"SGP4","SITE":"AFETR","TLE_LINE1":"1 46555U 20070Z   21330.84581864  .00309615  00000-0  10221-2 0  9999","OBJECT_ID":"2020-070Z","REV_AT_EPOCH":"6485","DECAY_DATE":null,"MEAN_MOTION":"15.89097483","OBJECT_NAME":"STARLINK-1674","TLE_LINE2":"2 46555  53.0477 281.3836 0000667  26.5356 333.5702 15.89097483 64850","CLASSIFICATION_TYPE":"U","EPOCH":"2021-11-26T20:17:58.730496","MEAN_MOTION_DDOT":"0.0000000000000","BSTAR":"0.00102210000000","COUNTRY_CODE":"US","GP_ID":"190559308","MEAN_ANOMALY":"333.5702","MEAN_MOTION_DOT":"0.00309615","OBJECT_TYPE":"PAYLOAD","CENTER_NAME":"EARTH","EPHEMERIS_TYPE":"0","ECCENTRICITY":"0.00006670","SEMIMAJOR_AXIS":"6682.949","NORAD_CAT_ID":"46555","INCLINATION":"53.0477","PERIOD":"90.617","PERIAPSIS":"304.368","APOAPSIS":"305.260","TIME_SYSTEM":"UTC","ELEMENT_SET_NO":"999","REF_FRAME":"TEME","ARG_OF_PERICENTER":"26.5356"},{"MEAN_ELEMENT_THEORY":"SGP4","RCS_SIZE":"LARGE","FILE":"3224952","LAUNCH_DATE":"2020-10-06","RA_OF_ASC_NODE":"357.1238","SITE":"AFETR","TLE_LINE1":"1 46556U 20070AA  21330.81710750  .00002629  00000-0  19530-3 0  9993","MEAN_MOTION":"15.06408583","DECAY_DATE":null,"REV_AT_EPOCH":"6379","OBJECT_ID":"2020-070AA","TLE_LINE2":"2 46556  53.0563 357.1238 0001477  62.8257 297.2882 15.06408583 63791","OBJECT_NAME":"STARLINK-1676","CLASSIFICATION_TYPE":"U","EPOCH":"2021-11-26T19:36:38.088000","COUNTRY_CODE":"US","BSTAR":"0.00019530000000","MEAN_MOTION_DDOT":"0.0000000000000","MEAN_ANOMALY":"297.2882","GP_ID":"190559555","OBJECT_TYPE":"PAYLOAD","MEAN_MOTION_DOT":"0.00002629","CENTER_NAME":"EARTH","ECCENTRICITY":"0.00014770","EPHEMERIS_TYPE":"0","SEMIMAJOR_AXIS":"6925.322","INCLINATION":"53.0563","NORAD_CAT_ID":"46556","PERIOD":"95.592","PERIAPSIS":"546.164","ARG_OF_PERICENTER":"62.8257","REF_FRAME":"TEME","ELEMENT_SET_NO":"999","APOAPSIS":"548.210","TIME_SYSTEM":"UTC"}];
